GPS BIIR-08             
1 27663U 03005A   26063.09764979 -.00000002  00000+0  00000+0 0  9991
2 27663  54.9074 219.1417 0148732  52.7148  86.9176  2.00566281169207
GPS BIIR-11             
1 28190U 04009A   26062.93632316 -.00000018  00000+0  00000+0 0  9990
2 28190  54.9161 279.9387 0110940 169.0537  10.0125  2.00558102160839
GPS BIIR-13             
1 28474U 04045A   26062.59556058 -.00000091  00000+0  00000+0 0  9996
2 28474  55.1952 329.1518 0170861 312.7942  43.5969  2.00573334156302
GPS BIIR-14M            
1 28874U 05038A   26061.34676233 -.00000001  00000+0  00000+0 0  9994
2 28874  54.9646 277.4881 0128856 295.3112 199.7188  2.00573091149694
METEOSAT-9 (MSG-2)      
1 28912U 05049B   26063.09473406  .00000115  00000+0  00000+0 0  9995
2 28912   9.1243  55.1851 0001796 221.3910 325.1022  1.00277093  5941
GPS BIIR-16M            
1 29601U 06052A   26062.71518354 -.00000005  00000+0  00000+0 0  9995
2 29601  54.9574 218.1844 0087880  89.3488 271.6075  2.00551577141290
GPS BIIR-17M            
1 32260U 07047A   26063.02203272  .00000000  00000+0  00000+0 0  9994
2 32260  54.0154  84.3992 0163602  85.9536 275.9759  2.00560739134704
GPS BIIR-18M            
1 32384U 07062A   26063.08505243 -.00000016  00000+0  00000+0 0  9995
2 32384  55.1150 278.3763 0032921 160.6577  12.9243  2.00553505133401
GOES 14                 
1 35491U 09033A   26063.12567421  .00000116  00000+0  00000+0 0  9998
2 35491   1.4182  84.4254 0002238 297.9403  26.7353  1.00124205  5530
GOES 15                 
1 36411U 10008A   26063.09828742  .00000009  00000+0  00000+0 0  9998
2 36411   1.0083  85.1554 0001823  21.0559 154.5075  1.00269362 58585
GSAT0101 (GALILEO-PFM)  
1 37846U 11060A   26053.46432651 -.00000082  00000+0  00000+0 0  9992
2 37846  57.0318 344.8758 0003975 357.0591   2.9533  1.70475478 89166
GSAT0102 (GALILEO-FM2)  
1 37847U 11060B   26060.06318653 -.00000106  00000+0  00000+0 0  9999
2 37847  57.0301 344.6971 0005422 341.2092 154.1953  1.70475778 89286
LUCH 5A                 
1 37951U 11074B   26062.83352980 -.00000057  00000+0  00000+0 0  9993
2 37951   8.4858  75.3546 0004005 243.8626 309.5287  1.00275356 51997
METEOSAT-10 (MSG-3)     
1 38552U 12035B   26063.15704770 -.00000014  00000+0  00000+0 0  9996
2 38552   4.4231  61.4646 0002500 294.6092 222.6503  1.00277354 49805
SARSAT 13 (METOP-B)     
1 38771U 12049A   26063.16571179  .00000159  00000+0  92663-4 0  9990
2 38771  98.6653 116.6935 0001214 296.6286  63.4767 14.21442583698340
GPS BIIF-3              
1 38833U 12053A   26063.11837641  .00000006  00000+0  00000+0 0  9998
2 38833  53.5658 147.9052 0176935  64.7808 297.0848  2.00565801 97338
GSAT0103 (GALILEO-FM3)  
1 38857U 12055A   26061.13039064  .00000014  00000+0  00000+0 0  9998
2 38857  55.7369 104.4827 0005349 284.8926  75.1340  1.70473355 83189
